{
  "norad_id": 66557,
  "name": "STARLINK-35699",
  "history": [
    {
      "epoch": "2026-03-28T17:01:19.152480",
      "apogee_km": 483.69875806072196,
      "perigee_km": 482.07955588767527,
      "latitude_deg": -39.79743191284285,
      "longitude_deg": -176.21205280022696,
      "semi_major_axis_km": 6861.026156974198,
      "eccentricity": 0.000118,
      "inclination_deg": 42.9978,
      "raan_deg": 240.0779,
      "arg_perigee_deg": 272.4771,
      "mean_anomaly_deg": 87.5946,
      "mean_motion_rev_day": 15.27633415
    }
  ]
}